CCSDS_OMM_VERS = 2.0
CREATION_DATE  = 
ORIGINATOR     = 

OBJECT_NAME    = IDEFIX & ARIANE 42P R/B
OBJECT_ID      = 2002-021B
CENTER_NAME    = EARTH
REF_FRAME      = TEME
TIME_SYSTEM    = UTC
MEAN_ELEMENT_THEORY = SGP/SGP4

EPOCH          = 2025-12-11T02:45:23.026176
MEAN_MOTION    = 14.30948398
ECCENTRICITY   = .0012938
INCLINATION    = 98.5783
RA_OF_ASC_NODE = 279.8267
ARG_OF_PERICENTER = 88.0034
MEAN_ANOMALY   = 272.2630

EPHEMERIS_TYPE = 0
CLASSIFICATION_TYPE = U
NORAD_CAT_ID   = 27422
ELEMENT_SET_NO = 999
REV_AT_EPOCH   = 23135
BSTAR          = .20742E-3
MEAN_MOTION_DOT = .502E-5
MEAN_MOTION_DDOT = 0

CCSDS_OMM_VERS = 2.0
CREATION_DATE  = 
ORIGINATOR     = 

OBJECT_NAME    = AQUA
OBJECT_ID      = 2002-022A
CENTER_NAME    = EARTH
REF_FRAME      = TEME
TIME_SYSTEM    = UTC
MEAN_ELEMENT_THEORY = SGP/SGP4

EPOCH          = 2025-12-11T04:43:12.917856
MEAN_MOTION    = 14.61802805
ECCENTRICITY   = .0001024
INCLINATION    = 98.4036
RA_OF_ASC_NODE = 306.0506
ARG_OF_PERICENTER = 115.4514
MEAN_ANOMALY   = 14.6405

EPHEMERIS_TYPE = 0
CLASSIFICATION_TYPE = U
NORAD_CAT_ID   = 27424
ELEMENT_SET_NO = 999
REV_AT_EPOCH   = 25580
BSTAR          = .34822E-3
MEAN_MOTION_DOT = .1689E-4
MEAN_MOTION_DDOT = 0

CCSDS_OMM_VERS = 2.0
CREATION_DATE  = 
ORIGINATOR     = 

OBJECT_NAME    = CZ-4B R/B
OBJECT_ID      = 2002-024C
CENTER_NAME    = EARTH
REF_FRAME      = TEME
TIME_SYSTEM    = UTC
MEAN_ELEMENT_THEORY = SGP/SGP4

EPOCH          = 2025-12-11T03:36:00.641088
MEAN_MOTION    = 14.14527335
ECCENTRICITY   = .0049156
INCLINATION    = 98.8999
RA_OF_ASC_NODE = 33.9271
ARG_OF_PERICENTER = 274.5101
MEAN_ANOMALY   = 94.9856

EPHEMERIS_TYPE = 0
CLASSIFICATION_TYPE = U
NORAD_CAT_ID   = 27432
ELEMENT_SET_NO = 999
REV_AT_EPOCH   = 21672
BSTAR          = .66295E-4
MEAN_MOTION_DOT = .84E-6
MEAN_MOTION_DDOT = 0

CCSDS_OMM_VERS = 2.0
CREATION_DATE  = 
ORIGINATOR     = 

OBJECT_NAME    = MIDORI II (ADEOS-II)
OBJECT_ID      = 2002-056A
CENTER_NAME    = EARTH
REF_FRAME      = TEME
TIME_SYSTEM    = UTC
MEAN_ELEMENT_THEORY = SGP/SGP4

EPOCH          = 2025-12-10T14:45:48.962592
MEAN_MOTION    = 14.29203564
ECCENTRICITY   = .0000077
INCLINATION    = 98.7632
RA_OF_ASC_NODE = 297.5602
ARG_OF_PERICENTER = 121.3907
MEAN_ANOMALY   = 238.7282

EPHEMERIS_TYPE = 0
CLASSIFICATION_TYPE = U
NORAD_CAT_ID   = 27597
ELEMENT_SET_NO = 999
REV_AT_EPOCH   = 19757
BSTAR          = .20701E-3
MEAN_MOTION_DOT = .481E-5
MEAN_MOTION_DDOT = 0

CCSDS_OMM_VERS = 2.0
CREATION_DATE  = 
ORIGINATOR     = 

OBJECT_NAME    = H-2A R/B
OBJECT_ID      = 2002-056E
CENTER_NAME    = EARTH
REF_FRAME      = TEME
TIME_SYSTEM    = UTC
MEAN_ELEMENT_THEORY = SGP/SGP4

EPOCH          = 2025-12-11T03:15:12.472128
MEAN_MOTION    = 14.33673943
ECCENTRICITY   = .0071406
INCLINATION    = 98.3063
RA_OF_ASC_NODE = 303.9561
ARG_OF_PERICENTER = 65.8421
MEAN_ANOMALY   = 305.2589

EPHEMERIS_TYPE = 0
CLASSIFICATION_TYPE = U
NORAD_CAT_ID   = 27601
ELEMENT_SET_NO = 999
REV_AT_EPOCH   = 20142
BSTAR          = .21125E-3
MEAN_MOTION_DOT = .562E-5
MEAN_MOTION_DDOT = 0

CCSDS_OMM_VERS = 2.0
CREATION_DATE  = 
ORIGINATOR     = 

OBJECT_NAME    = CZ-4B R/B
OBJECT_ID      = 2003-049C
CENTER_NAME    = EARTH
REF_FRAME      = TEME
TIME_SYSTEM    = UTC
MEAN_ELEMENT_THEORY = SGP/SGP4

EPOCH          = 2025-12-11T05:17:01.901760
MEAN_MOTION    = 14.54907042
ECCENTRICITY   = .0048929
INCLINATION    = 98.6788
RA_OF_ASC_NODE = 331.7267
ARG_OF_PERICENTER = 140.6553
MEAN_ANOMALY   = 219.8214

EPHEMERIS_TYPE = 0
CLASSIFICATION_TYPE = U
NORAD_CAT_ID   = 28059
ELEMENT_SET_NO = 999
REV_AT_EPOCH   = 17373
BSTAR          = .15191E-3
MEAN_MOTION_DOT = .612E-5
MEAN_MOTION_DDOT = 0

CCSDS_OMM_VERS = 2.0
CREATION_DATE  = 
ORIGINATOR     = 

OBJECT_NAME    = CZ-2C R/B
OBJECT_ID      = 2004-012C
CENTER_NAME    = EARTH
REF_FRAME      = TEME
TIME_SYSTEM    = UTC
MEAN_ELEMENT_THEORY = SGP/SGP4

EPOCH          = 2025-12-11T04:41:33.281376
MEAN_MOTION    = 15.55356947
ECCENTRICITY   = .0016586
INCLINATION    = 97.7426
RA_OF_ASC_NODE = 37.6885
ARG_OF_PERICENTER = 276.4423
MEAN_ANOMALY   = 83.4941

EPHEMERIS_TYPE = 0
CLASSIFICATION_TYPE = U
NORAD_CAT_ID   = 28222
ELEMENT_SET_NO = 999
REV_AT_EPOCH   = 19048
BSTAR          = .79568E-3
MEAN_MOTION_DOT = .54546E-3
MEAN_MOTION_DDOT = 0

CCSDS_OMM_VERS = 2.0
CREATION_DATE  = 
ORIGINATOR     = 

OBJECT_NAME    = SL-16 R/B
OBJECT_ID      = 2004-021B
CENTER_NAME    = EARTH
REF_FRAME      = TEME
TIME_SYSTEM    = UTC
MEAN_ELEMENT_THEORY = SGP/SGP4

EPOCH          = 2025-12-11T04:58:26.444064
MEAN_MOTION    = 14.14581129
ECCENTRICITY   = .0005375
INCLINATION    = 71.0018
RA_OF_ASC_NODE = 58.1814
ARG_OF_PERICENTER = 202.6927
MEAN_ANOMALY   = 157.3958

EPHEMERIS_TYPE = 0
CLASSIFICATION_TYPE = U
NORAD_CAT_ID   = 28353
ELEMENT_SET_NO = 999
REV_AT_EPOCH   = 11032
BSTAR          = -.86529E-4
MEAN_MOTION_DOT = -.214E-5
MEAN_MOTION_DDOT = 0

CCSDS_OMM_VERS = 2.0
CREATION_DATE  = 
ORIGINATOR     = 

OBJECT_NAME    = CZ-4B R/B
OBJECT_ID      = 2004-035C
CENTER_NAME    = EARTH
REF_FRAME      = TEME
TIME_SYSTEM    = UTC
MEAN_ELEMENT_THEORY = SGP/SGP4

EPOCH          = 2025-12-11T01:18:31.883616
MEAN_MOTION    = 15.27323929
ECCENTRICITY   = .0031661
INCLINATION    = 97.3613
RA_OF_ASC_NODE = 15.4207
ARG_OF_PERICENTER = 283.8046
MEAN_ANOMALY   = 75.9671

EPHEMERIS_TYPE = 0
CLASSIFICATION_TYPE = U
NORAD_CAT_ID   = 28415
ELEMENT_SET_NO = 999
REV_AT_EPOCH   = 16637
BSTAR          = .46255E-3
MEAN_MOTION_DOT = .12494E-3
MEAN_MOTION_DDOT = 0

CCSDS_OMM_VERS = 2.0
CREATION_DATE  = 
ORIGINATOR     = 

OBJECT_NAME    = CZ-2C R/B
OBJECT_ID      = 2004-046B
CENTER_NAME    = EARTH
REF_FRAME      = TEME
TIME_SYSTEM    = UTC
MEAN_ELEMENT_THEORY = SGP/SGP4

EPOCH          = 2025-12-11T04:56:35.603232
MEAN_MOTION    = 14.26939448
ECCENTRICITY   = .014055
INCLINATION    = 98.1989
RA_OF_ASC_NODE = 260.6791
ARG_OF_PERICENTER = 56.8085
MEAN_ANOMALY   = 304.6485

EPHEMERIS_TYPE = 0
CLASSIFICATION_TYPE = U
NORAD_CAT_ID   = 28480
ELEMENT_SET_NO = 999
REV_AT_EPOCH   = 9588
BSTAR          = .13042E-3
MEAN_MOTION_DOT = .312E-5
MEAN_MOTION_DDOT = 0

CCSDS_OMM_VERS = 2.0
CREATION_DATE  = 
ORIGINATOR     = 

OBJECT_NAME    = CZ-2D R/B
OBJECT_ID      = 2005-024B
CENTER_NAME    = EARTH
REF_FRAME      = TEME
TIME_SYSTEM    = UTC
MEAN_ELEMENT_THEORY = SGP/SGP4

EPOCH          = 2025-12-10T23:34:36.761088
MEAN_MOTION    = 15.53034585
ECCENTRICITY   = .0005778
INCLINATION    = 97.3639
RA_OF_ASC_NODE = 352.3826
ARG_OF_PERICENTER = 12.5226
MEAN_ANOMALY   = 347.6170

EPHEMERIS_TYPE = 0
CLASSIFICATION_TYPE = U
NORAD_CAT_ID   = 28738
ELEMENT_SET_NO = 999
REV_AT_EPOCH   = 12598
BSTAR          = .62776E-3
MEAN_MOTION_DOT = .39252E-3
MEAN_MOTION_DDOT = 0

